{
  "type": "FeatureCollection",
  "features": [
    {
      "type": "Feature",
      "properties": {
        "norad_id": 66579,
        "name": "STARLINK-35868",
        "group": "last-30-days",
        "lat": 42.71207299650075,
        "lon": -117.67351550816007,
        "alt_km": 403.5191419133689,
        "timestamp": "2025-12-08T17:43:03.632799+00:00",
        "meta_object_name": "STARLINK-35868",
        "meta_object_id": "2025-268Y",
        "meta_epoch": "2025-12-08T06:00:02.999808",
        "meta_mean_motion": 15.54790251,
        "meta_eccentricity": 0.00013778,
        "meta_inclination": 43.0002,
        "meta_ra_of_asc_node": 147.3652,
        "meta_arg_of_pericenter": 262.1333,
        "meta_mean_anomaly": 339.6565,
        "meta_ephemeris_type": 0,
        "meta_classification_type": "U",
        "meta_norad_cat_id": 66579,
        "meta_element_set_no": 999,
        "meta_rev_at_epoch": 394,
        "meta_bstar": -0.033638854,
        "meta_mean_motion_dot": -0.02049905,
        "meta_mean_motion_ddot": 0,
        "tle_line1": "1 66579U 25268Y   25342.25003472 -.02049905  00000+0 -33639-1 0  9990",
        "tle_line2": "2 66579  43.0002 147.3652 0001377 262.1333 339.6565 15.54790251  3942"
      },
      "geometry": {
        "type": "Point",
        "coordinates": [
          -117.67351550816007,
          42.71207299650075
        ]
      }
    },
    {
      "type": "Feature",
      "properties": {
        "norad_id": 66580,
        "name": "STARLINK-35872",
        "group": "last-30-days",
        "lat": 42.50497975734229,
        "lon": -115.08827899991937,
        "alt_km": 403.55524937252085,
        "timestamp": "2025-12-08T17:43:03.632809+00:00",
        "meta_object_name": "STARLINK-35872",
        "meta_object_id": "2025-268Z",
        "meta_epoch": "2025-12-08T06:00:02.999808",
        "meta_mean_motion": 15.547942,
        "meta_eccentricity": 0.00014064,
        "meta_inclination": 43.0004,
        "meta_ra_of_asc_node": 147.3609,
        "meta_arg_of_pericenter": 258.9395,
        "meta_mean_anomaly": 344.7661,
        "meta_ephemeris_type": 0,
        "meta_classification_type": "U",
        "meta_norad_cat_id": 66580,
        "meta_element_set_no": 999,
        "meta_rev_at_epoch": 394,
        "meta_bstar": -0.033745179,
        "meta_mean_motion_dot": -0.02055971,
        "meta_mean_motion_ddot": 0,
        "tle_line1": "1 66580U 25268Z   25342.25003472 -.02055971  00000+0 -33745-1 0  9990",
        "tle_line2": "2 66580  43.0004 147.3609 0001406 258.9395 344.7661 15.54794200  3944"
      },
      "geometry": {
        "type": "Point",
        "coordinates": [
          -115.08827899991937,
          42.50497975734229
        ]
      }
    },
    {
      "type": "Feature",
      "properties": {
        "norad_id": 66581,
        "name": "STARLINK-35744",
        "group": "last-30-days",
        "lat": 42.23948435518039,
        "lon": -112.52148038164225,
        "alt_km": 403.6344426995738,
        "timestamp": "2025-12-08T17:43:03.632823+00:00",
        "meta_object_name": "STARLINK-35744",
        "meta_object_id": "2025-268AA",
        "meta_epoch": "2025-12-08T06:00:02.999808",
        "meta_mean_motion": 15.54790484,
        "meta_eccentricity": 0.00014573,
        "meta_inclination": 43.0004,
        "meta_ra_of_asc_node": 147.3548,
        "meta_arg_of_pericenter": 262.0404,
        "meta_mean_anomaly": 343.5834,
        "meta_ephemeris_type": 0,
        "meta_classification_type": "U",
        "meta_norad_cat_id": 66581,
        "meta_element_set_no": 999,
        "meta_rev_at_epoch": 389,
        "meta_bstar": -0.033669847,
        "meta_mean_motion_dot": -0.02051656,
        "meta_mean_motion_ddot": 0,
        "tle_line1": "1 66581U 25268AA  25342.25003472 -.02051656  00000+0 -33670-1 0  9994",
        "tle_line2": "2 66581  43.0004 147.3548 0001457 262.0404 343.5834 15.54790484  3893"
      },
      "geometry": {
        "type": "Point",
        "coordinates": [
          -112.52148038164225,
          42.23948435518039
        ]
      }
    },
    {
      "type": "Feature",
      "properties": {
        "norad_id": 66582,
        "name": "STARLINK-35746",
        "group": "last-30-days",
        "lat": 41.91670683914333,
        "lon": -109.97354022514763,
        "alt_km": 403.6140991166076,
        "timestamp": "2025-12-08T17:43:03.632833+00:00",
        "meta_object_name": "STARLINK-35746",
        "meta_object_id": "2025-268AB",
        "meta_epoch": "2025-12-08T06:00:02.999808",
        "meta_mean_motion": 15.54786186,
        "meta_eccentricity": 0.00014288,
        "meta_inclination": 43.0006,
        "meta_ra_of_asc_node": 147.3501,
        "meta_arg_of_pericenter": 259.6296,
        "meta_mean_anomaly": 347.9126,
        "meta_ephemeris_type": 0,
        "meta_classification_type": "U",
        "meta_norad_cat_id": 66582,
        "meta_element_set_no": 999,
        "meta_rev_at_epoch": 394,
        "meta_bstar": -0.033494295,
        "meta_mean_motion_dot": -0.02041797,
        "meta_mean_motion_ddot": 0,
        "tle_line1": "1 66582U 25268AB  25342.25003472 -.02041797  00000+0 -33494-1 0  9994",
        "tle_line2": "2 66582  43.0006 147.3501 0001428 259.6296 347.9126 15.54786186  3946"
      },
      "geometry": {
        "type": "Point",
        "coordinates": [
          -109.97354022514763,
          41.91670683914333
        ]
      }
    },
    {
      "type": "Feature",
      "properties": {
        "norad_id": 66583,
        "name": "STARLINK-35941",
        "group": "last-30-days",
        "lat": 41.53805056434815,
        "lon": -107.45530658289658,
        "alt_km": 403.6933168900141,
        "timestamp": "2025-12-08T17:43:03.632844+00:00",
        "meta_object_name": "STARLINK-35941",
        "meta_object_id": "2025-268AC",
        "meta_epoch": "2025-12-08T06:00:02.999808",
        "meta_mean_motion": 15.54791273,
        "meta_eccentricity": 0.00013941,
        "meta_inclination": 43.0004,
        "meta_ra_of_asc_node": 147.3464,
        "meta_arg_of_pericenter": 266.656,
        "meta_mean_anomaly": 342.7992,
        "meta_ephemeris_type": 0,
        "meta_classification_type": "U",
        "meta_norad_cat_id": 66583,
        "meta_element_set_no": 999,
        "meta_rev_at_epoch": 394,
        "meta_bstar": -0.033618799,
        "meta_mean_motion_dot": -0.02048893,
        "meta_mean_motion_ddot": 0,
        "tle_line1": "1 66583U 25268AC  25342.25003472 -.02048893  00000+0 -33619-1 0  9998",
        "tle_line2": "2 66583  43.0004 147.3464 0001394 266.6560 342.7992 15.54791273  3944"
      },
      "geometry": {
        "type": "Point",
        "coordinates": [
          -107.45530658289658,
          41.53805056434815
        ]
      }
    },
    {
      "type": "Feature",
      "properties": {
        "norad_id": 66584,
        "name": "STARLINK-35939",
        "group": "last-30-days",
        "lat": 41.10576677880824,
        "lon": -104.97089293937938,
        "alt_km": 403.6940921604337,
        "timestamp": "2025-12-08T17:43:03.632855+00:00",
        "meta_object_name": "STARLINK-35939",
        "meta_object_id": "2025-268AD",
        "meta_epoch": "2025-12-08T06:00:02.999808",
        "meta_mean_motion": 15.54786443,
        "meta_eccentricity": 0.00013686,
        "meta_inclination": 43.0007,
        "meta_ra_of_asc_node": 147.3419,
        "meta_arg_of_pericenter": 261.6965,
        "meta_mean_anomaly": 349.6803,
        "meta_ephemeris_type": 0,
        "meta_classification_type": "U",
        "meta_norad_cat_id": 66584,
        "meta_element_set_no": 999,
        "meta_rev_at_epoch": 394,
        "meta_bstar": -0.033525994,
        "meta_mean_motion_dot": -0.02043501,
        "meta_mean_motion_ddot": 0,
        "tle_line1": "1 66584U 25268AD  25342.25003472 -.02043501  00000+0 -33526-1 0  9997",
        "tle_line2": "2 66584  43.0007 147.3419 0001368 261.6965 349.6803 15.54786443  3943"
      },
      "geometry": {
        "type": "Point",
        "coordinates": [
          -104.97089293937938,
          41.10576677880824
        ]
      }
    },
    {
      "type": "Feature",
      "properties": {
        "norad_id": 66585,
        "name": "STARLINK-35963",
        "group": "last-30-days",
        "lat": 40.620166134822014,
        "lon": -102.52225456776664,
        "alt_km": 403.8831380252823,
        "timestamp": "2025-12-08T17:43:03.632867+00:00",
        "meta_object_name": "STARLINK-35963",
        "meta_object_id": "2025-268AE",
        "meta_epoch": "2025-12-08T06:00:02.999808",
        "meta_mean_motion": 15.54789977,
        "meta_eccentricity": 0.00015409,
        "meta_inclination": 43.0003,
        "meta_ra_of_asc_node": 147.3372,
        "meta_arg_of_pericenter": 263.5052,
        "meta_mean_anomaly": 349.7845,
        "meta_ephemeris_type": 0,
        "meta_classification_type": "U",
        "meta_norad_cat_id": 66585,
        "meta_element_set_no": 999,
        "meta_rev_at_epoch": 394,
        "meta_bstar": -0.033579348,
        "meta_mean_motion_dot": -0.02046753,
        "meta_mean_motion_ddot": 0,
        "tle_line1": "1 66585U 25268AE  25342.25003472 -.02046753  00000+0 -33579-1 0  9998",
        "tle_line2": "2 66585  43.0003 147.3372 0001540 263.5052 349.7845 15.54789977  3940"
      },
      "geometry": {
        "type": "Point",
        "coordinates": [
          -102.52225456776664,
          40.620166134822014
        ]
      }
    }
  ]
}